DUBAISAT-1              
1 35682U 09041B   26189.93067776  .00000591  00000+0  95098-4 0  9998
2 35682  98.0077 322.9535 0010414   8.9680 351.1713 14.75160197908309
OCEANSAT-2              
1 35931U 09051A   26191.57548699 -.00000167  00000+0 -88229-4 0  9996
2 35931  98.2318 176.0920 0017046 166.8638 193.2976 13.99656754882601
WORLDVIEW-2 (WV-2)      
1 35946U 09055A   26191.82300527  .00000046  00000+0  29619-4 0  9992
2 35946  98.4757 264.9506 0005132 140.3305 219.8258 14.37906210879044
SMOS                    
1 36036U 09059A   26190.98409889  .00000150  00000+0  61818-4 0  9997
2 36036  98.4429  17.9851 0001140  95.2282 264.9037 14.39733948876734
YAOGAN-7                
1 36110U 09069A   26189.61704388  .00000339  00000+0  54067-4 0  9998
2 36110  98.0044  75.3492 0023935 333.3807  26.6172 14.78031471892792
TANDEM-X                
1 36605U 10030A   26188.47915494  .00000386  00000+0  21566-4 0  9992
2 36605  97.4457 195.8973 0001887  94.3019 265.8431 15.19154052889726
CARTOSAT-2B             
1 36795U 10035A   26191.82143625 -.00000011  00000+0  56458-5 0  9994
2 36795  97.9945 242.2183 0012473 111.7310 248.5230 14.78612295863341
YAOGAN-10               
1 36834U 10038A   26191.86885435  .00000581  00000+0  73653-4 0  9993
2 36834  97.8978 215.0841 0001699  82.6349  19.6945 14.85420008860721
COSMO-SKYMED 4          
1 37216U 10060A   26191.80237348  .00000792  00000+0  10606-3 0  9993
2 37216  97.8897  15.0609 0001508  85.0930 275.0455 14.82147857848060
RESOURCESAT-2           
1 37387U 11015A   26191.80802604  .00000005  00000+0  22405-4 0  9994
2 37387  98.7633 259.0854 0011332 183.4233 176.6869 14.21605258789532
HAIYANG-2A              
1 37781U 11043A   26191.85002670 -.00000182  00000+0 -14925-3 0  9998
2 37781  99.3404 193.9871 0002943  40.9265 319.2104 13.73480765749902
RASAT                   
1 37791U 11044D   26191.84207650  .00000289  00000+0  58519-4 0  9998
2 37791  98.0574 282.8786 0021795 115.5953  28.8011 14.68190030796651
SRMSAT                  
1 37841U 11058D   26191.25823061  .00000355  00000+0  48960-4 0  9997
2 37841  19.9719 279.8299 0011870  97.3618 287.0554 14.11580397761080
PLEIADES 1A             
1 38012U 11076F   26191.87601919  .00000006  00000+0  11078-4 0  9995
2 38012  98.1970 266.6598 0001736  81.5142  53.7894 14.58544975775445
ZIYUAN 1-02C (ZY 1-02C) 
1 38038U 11079A   26191.87988524  .00000135  00000+0  58723-4 0  9997
2 38038  98.4063 258.6923 0005360 229.8425 250.1634 14.38233091762612
ARIRANG-3 (KOMPSAT-3)   
1 38338U 12025B   26191.84638171  .00000217  00000+0  52277-4 0  9998
2 38338  98.1182 148.8999 0006459  50.1735 310.0034 14.62226763754803
EXACTVIEW-1 (ADS-1B)    
1 38709U 12039C   26190.28848470  .00000066  00000+0  48059-4 0  9992
2 38709  98.9798 308.1803 0011932 106.9299 253.3189 14.24991160725859
SPOT 6                  
1 38755U 12047A   26191.86561084  .00000000  00000+0  99537-5 0  9996
2 38755  98.2110 258.8962 0001144  82.1990 277.9339 14.58536957736504
PLEIADES 1B             
1 39019U 12068A   26191.81558962  .00000066  00000+0  24111-4 0  9996
2 39019  98.1939 266.5412 0001624  79.5837 280.5546 14.58532697724295
GOKTURK 2               
1 39030U 12073A   26191.81516498  .00000126  00000+0  25371-4 0  9999
2 39030  97.6820  28.0619 0000916  80.2990 279.8324 14.75565346727994
LANDSAT 8               
1 39084U 13008A   26191.85321044  .00000153  00000+0  44150-4 0  9998
2 39084  98.2292 261.7063 0001353  93.7001 266.4352 14.57109994701347
SARAL                   
1 39086U 13009A   26191.78310834  .00000053  00000+0  35264-4 0  9993
2 39086  98.5554  18.0519 0001431 178.2675 181.8514 14.32895038698984
GAOFEN-1                
1 39150U 13018A   26191.84945578  .00000408  00000+0  65656-4 0  9993
2 39150  97.9087 263.4355 0016688 185.1035 175.0007 14.76516381711731
VNREDSAT 1              
1 39160U 13021B   26191.85968047  .00000229  00000+0  51327-4 0  9996
2 39160  97.9072 244.3660 0001639  81.0079 279.1310 14.64880784703759
ARIRANG-5 (KOMPSAT-5)   
1 39227U 13042A   26191.84299422  .00001137  00000+0  85489-4 0  9991
2 39227  97.6221  18.2117 0005564  69.2400 290.9422 15.04521627707413
SKYSAT-A                
1 39418U 13066C   26190.54461547  .00002223  00000+0  12862-3 0  9995
2 39418  97.3805 239.2292 0020025 233.9327 126.0050 15.13096648691863
DUBAISAT-2              
1 39419U 13066D   26191.85641950  .00003273  00000+0  20312-3 0  9994
2 39419  97.4573 181.3834 0009770 319.2353  40.8145 15.10355407689961
GPM-CORE                
1 39574U 14009C   26191.83872734  .00003634  00000+0  81966-4 0  9992
2 39574  64.9699 228.8872 0011053 260.5634  99.4257 15.45010385701462
SENTINEL-1A             
1 39634U 14016A   26191.88747689 -.00000117  00000+0 -15024-4 0  9999
2 39634  98.1787 199.0739 0001436  86.3077 273.8287 14.59199241653477
KAZEOSAT 1              
1 39731U 14024A   26191.82079637 -.00000084  00000+0 -12570-4 0  9997
2 39731  98.3198 263.6792 0001266  82.2254 277.9079 14.42035756641960
