OBJECT_NAME,OBJECT_ID,EPOCH,MEAN_MOTION,ECCENTRICITY,INCLINATION,RA_OF_ASC_NODE,ARG_OF_PERICENTER,MEAN_ANOMALY,EPHEMERIS_TYPE,CLASSIFICATION_TYPE,NORAD_CAT_ID,ELEMENT_SET_NO,REV_AT_EPOCH,BSTAR,MEAN_MOTION_DOT,MEAN_MOTION_DDOT
DUBAISAT-1,2009-041B,2026-07-08T22:20:10.558464,14.75160197,.00104149,98.0077,322.9535,8.9680,351.1713,0,U,35682,999,90830,.9509836E-4,.591E-5,0
OCEANSAT-2,2009-051A,2026-07-10T13:48:42.075936,13.99656754,.00170469,98.2318,176.0920,166.8638,193.2976,0,U,35931,999,88260,-.88229229E-4,-.167E-5,0
WORLDVIEW-2 (WV-2),2009-055A,2026-07-10T19:45:07.655328,14.37906210,.0005132,98.4757,264.9506,140.3305,219.8258,0,U,35946,999,87904,.29619E-4,.46E-6,0
SMOS,2009-059A,2026-07-09T23:37:06.144096,14.39733948,.00011405,98.4429,17.9851,95.2282,264.9037,0,U,36036,999,87673,.61817664E-4,.15E-5,0
YAOGAN-7,2009-069A,2026-07-08T14:48:32.591232,14.78031471,.00239353,98.0044,75.3492,333.3807,26.6172,0,U,36110,999,89279,.54067378E-4,.339E-5,0
TANDEM-X,2010-030A,2026-07-07T11:29:58.986816,15.19154052,.0001887,97.4457,195.8973,94.3019,265.8431,0,U,36605,999,88972,.21566E-4,.386E-5,0
CARTOSAT-2B,2010-035A,2026-07-10T19:42:52.092000,14.78612295,.0012473,97.9945,242.2183,111.7310,248.5230,0,U,36795,999,86334,.56458E-5,-.11E-6,0
YAOGAN-10,2010-038A,2026-07-10T20:51:09.015840,14.85420008,.0001699,97.8978,215.0841,82.6349,19.6945,0,U,36834,999,86072,.73653E-4,.581E-5,0
COSMO-SKYMED 4,2010-060A,2026-07-10T19:15:25.068672,14.82147857,.0001508,97.8897,15.0609,85.0930,275.0455,0,U,37216,999,84806,.10606E-3,.792E-5,0
RESOURCESAT-2,2011-015A,2026-07-10T19:23:33.449856,14.21605258,.0011332,98.7633,259.0854,183.4233,176.6869,0,U,37387,999,78953,.22405E-4,.5E-7,0
HAIYANG-2A,2011-043A,2026-07-10T20:24:02.306880,13.73480765,.0002943,99.3404,193.9871,40.9265,319.2104,0,U,37781,999,74990,-.14925E-3,-.182E-5,0
RASAT,2011-044D,2026-07-10T20:12:35.409600,14.68190030,.0021795,98.0574,282.8786,115.5953,28.8011,0,U,37791,999,79665,.58519E-4,.289E-5,0
SRMSAT,2011-058D,2026-07-10T06:11:51.124704,14.11580397,.00118704,19.9719,279.8299,97.3618,287.0554,0,U,37841,999,76108,.48960392E-4,.355E-5,0
PLEIADES 1A,2011-076F,2026-07-10T21:01:28.058016,14.58544975,.0001736,98.1970,266.6598,81.5142,53.7894,0,U,38012,999,77544,.11078E-4,.6E-7,0
ZIYUAN 1-02C (ZY 1-02C),2011-079A,2026-07-10T21:07:02.084736,14.38233091,.000536,98.4063,258.6923,229.8425,250.1634,0,U,38038,999,76261,.58723E-4,.135E-5,0
ARIRANG-3 (KOMPSAT-3),2012-025B,2026-07-10T20:18:47.379744,14.62226763,.0006459,98.1182,148.8999,50.1735,310.0034,0,U,38338,999,75480,.52277E-4,.217E-5,0
EXACTVIEW-1 (ADS-1B),2012-039C,2026-07-09T06:55:25.078080,14.24991160,.00119328,98.9798,308.1803,106.9299,253.3189,0,U,38709,999,72585,.48059452E-4,.66E-6,0
SPOT 6,2012-047A,2026-07-10T20:46:28.776576,14.58536957,.0001144,98.2110,258.8962,82.1990,277.9339,0,U,38755,999,73650,.99537E-5,0,0
PLEIADES 1B,2012-068A,2026-07-10T19:34:26.943168,14.58532697,.0001624,98.1939,266.5412,79.5837,280.5546,0,U,39019,999,72429,.24111E-4,.66E-6,0
GOKTURK 2,2012-073A,2026-07-10T19:33:50.254272,14.75565346,.0000916,97.6820,28.0619,80.2990,279.8324,0,U,39030,999,72799,.25371E-4,.126E-5,0
LANDSAT 8,2013-008A,2026-07-10T20:28:37.382016,14.57109994,.0001353,98.2292,261.7063,93.7001,266.4352,0,U,39084,999,70134,.4415E-4,.153E-5,0
SARAL,2013-009A,2026-07-10T18:47:40.560576,14.32895038,.0001431,98.5554,18.0519,178.2675,181.8514,0,U,39086,999,69898,.35264E-4,.53E-6,0
GAOFEN-1,2013-018A,2026-07-10T20:23:12.979392,14.76516381,.0016688,97.9087,263.4355,185.1035,175.0007,0,U,39150,999,71173,.65656E-4,.408E-5,0
VNREDSAT 1,2013-021B,2026-07-10T20:37:56.392608,14.64880784,.0001639,97.9072,244.3660,81.0079,279.1310,0,U,39160,999,70375,.51327E-4,.229E-5,0
ARIRANG-5 (KOMPSAT-5),2013-042A,2026-07-10T20:13:54.700608,15.04521627,.0005564,97.6221,18.2117,69.2400,290.9422,0,U,39227,999,70741,.85489E-4,.1137E-4,0
SKYSAT-A,2013-066C,2026-07-09T13:04:14.776608,15.13096648,.00200258,97.3805,239.2292,233.9327,126.0050,0,U,39418,999,69186,.12862473E-3,.2223E-4,0
DUBAISAT-2,2013-066D,2026-07-10T20:33:14.644800,15.10355407,.000977,97.4573,181.3834,319.2353,40.8145,0,U,39419,999,68996,.20312E-3,.3273E-4,0
GPM-CORE,2014-009C,2026-07-10T20:07:46.042176,15.45010385,.0011053,64.9699,228.8872,260.5634,99.4257,0,U,39574,999,70146,.81966E-4,.3634E-4,0
SENTINEL-1A,2014-016A,2026-07-10T21:17:58.003296,14.59199241,.0001436,98.1787,199.0739,86.3077,273.8287,0,U,39634,999,65347,-.15024E-4,-.117E-5,0
KAZEOSAT 1,2014-024A,2026-07-10T19:41:56.806368,14.42035756,.0001266,98.3198,263.6792,82.2254,277.9079,0,U,39731,999,64196,-.1257E-4,-.84E-6,0
